[
    {
        "Altitude(m)": 568688.9979706057,
        "Argument of Periapsis(deg)": 0.019868973332140504,
        "Eccentricity": 0.0,
        "Inclination(deg)": 53.0,
        "Latitude(deg)": -45.25764120521621,
        "Longitude(deg)": -91.51109133306734,
        "Mean Anomaly(deg)": 297.54757860273276,
        "RAAN(deg)": 59.970430105584036,
        "Satellite Name": "Starlink Shell 1 280",
        "Satellite Number": 280,
        "Semi-Major Axis(m)": 6931778.249405717,
        "Time(s)": 570
    },
    {
        "Altitude(m)": 568553.6715302704,
        "Argument of Periapsis(deg)": 0.02021755181165174,
        "Eccentricity": 0.0,
        "Inclination(deg)": 53.0,
        "Latitude(deg)": -44.928027360421716,
        "Longitude(deg)": -90.80156036247996,
        "Mean Anomaly(deg)": 298.1744098062895,
        "RAAN(deg)": 59.96991133550657,
        "Satellite Name": "Starlink Shell 1 280",
        "Satellite Number": 280,
        "Semi-Major Axis(m)": 6931778.249405717,
        "Time(s)": 580
    },
    {
        "Altitude(m)": 568416.1689596742,
        "Argument of Periapsis(deg)": 0.020566130291162974,
        "Eccentricity": 0.0,
        "Inclination(deg)": 53.0,
        "Latitude(deg)": -44.59350943659518,
        "Longitude(deg)": -90.10061028123714,
        "Mean Anomaly(deg)": 298.80124100984625,
        "RAAN(deg)": 59.9693925654291,
        "Satellite Name": "Starlink Shell 1 280",
        "Satellite Number": 280,
        "Semi-Major Axis(m)": 6931778.249405717,
        "Time(s)": 590
    },
    {
        "Altitude(m)": 568276.5443969945,
        "Argument of Periapsis(deg)": 0.020914708770674213,
        "Eccentricity": 0.0,
        "Inclination(deg)": 53.0,
        "Latitude(deg)": -44.25419790920523,
        "Longitude(deg)": -89.40816638959654,
        "Mean Anomaly(deg)": 299.4280722134029,
        "RAAN(deg)": 59.96887379535162,
        "Satellite Name": "Starlink Shell 1 280",
        "Satellite Number": 280,
        "Semi-Major Axis(m)": 6931778.249405717,
        "Time(s)": 600
    },
    {
        "Altitude(m)": 568134.8527775144,
        "Argument of Periapsis(deg)": 0.021263287250185448,
        "Eccentricity": 0.0,
        "Inclination(deg)": 53.0,
        "Latitude(deg)": -43.910201633411035,
        "Longitude(deg)": -88.72414851912502,
        "Mean Anomaly(deg)": -59.94509658304043,
        "RAAN(deg)": 59.96835502527416,
        "Satellite Name": "Starlink Shell 1 280",
        "Satellite Number": 280,
        "Semi-Major Axis(m)": 6931778.249405717,
        "Time(s)": 610
    },
    {
        "Altitude(m)": 567991.1498094806,
        "Argument of Periapsis(deg)": 0.021611865729696686,
        "Eccentricity": 0.0,
        "Inclination(deg)": 53.0,
        "Latitude(deg)": -43.56162779541994,
        "Longitude(deg)": -88.0484709768737,
        "Mean Anomaly(deg)": -59.31826537948361,
        "RAAN(deg)": 59.96783625519668,
        "Satellite Name": "Starlink Shell 1 280",
        "Satellite Number": 280,
        "Semi-Major Axis(m)": 6931778.249405717,
        "Time(s)": 620
    },
    {
        "Altitude(m)": 567845.49194957,
        "Argument of Periapsis(deg)": 0.02196044420920792,
        "Eccentricity": 0.0,
        "Inclination(deg)": 53.0,
        "Latitude(deg)": -43.208581871044615,
        "Longitude(deg)": -87.38104415327354,
        "Mean Anomaly(deg)": -58.69143417592694,
        "RAAN(deg)": 59.9673174851192,
        "Satellite Name": "Starlink Shell 1 280",
        "Satellite Number": 280,
        "Semi-Major Axis(m)": 6931778.249405717,
        "Time(s)": 630
    },
    {
        "Altitude(m)": 567697.9363780341,
        "Argument of Periapsis(deg)": 0.02230902268871916,
        "Eccentricity": 0.0,
        "Inclination(deg)": 53.0,
        "Latitude(deg)": -42.85116759104232,
        "Longitude(deg)": -86.72177359083334,
        "Mean Anomaly(deg)": -58.064602972370245,
        "RAAN(deg)": 59.96679871504174,
        "Satellite Name": "Starlink Shell 1 280",
        "Satellite Number": 280,
        "Semi-Major Axis(m)": 6931778.249405717,
        "Time(s)": 640
    },
    {
        "Altitude(m)": 567548.5409734844,
        "Argument of Periapsis(deg)": 0.022657601168230398,
        "Eccentricity": 0.0,
        "Inclination(deg)": 53.0,
        "Latitude(deg)": -42.48948691282449,
        "Longitude(deg)": -86.07056155624167,
        "Mean Anomaly(deg)": -57.43777176881348,
        "RAAN(deg)": 59.96627994496426,
        "Satellite Name": "Starlink Shell 1 280",
        "Satellite Number": 280,
        "Semi-Major Axis(m)": 6931778.249405717,
        "Time(s)": 650
    },
    {
        "Altitude(m)": 567397.3642873818,
        "Argument of Periapsis(deg)": 0.023006179647741636,
        "Eccentricity": 0.0,
        "Inclination(deg)": 53.0,
        "Latitude(deg)": -42.12363999812869,
        "Longitude(deg)": -85.42730691325679,
        "Mean Anomaly(deg)": -56.81094056525682,
        "RAAN(deg)": 59.96576117488679,
        "Satellite Name": "Starlink Shell 1 280",
        "Satellite Number": 280,
        "Semi-Major Axis(m)": 6931778.249405717,
        "Time(s)": 660
    },
    {
        "Altitude(m)": 567244.4655181888,
        "Argument of Periapsis(deg)": 0.023354758127252868,
        "Eccentricity": 0.0,
        "Inclination(deg)": 53.0,
        "Latitude(deg)": -41.75372519625406,
        "Longitude(deg)": -84.79190497730859,
        "Mean Anomaly(deg)": -56.184109361700074,
        "RAAN(deg)": 59.965242404809324,
        "Satellite Name": "Starlink Shell 1 280",
        "Satellite Number": 280,
        "Semi-Major Axis(m)": 6931778.249405717,
        "Time(s)": 670
    },
    {
        "Altitude(m)": 567089.9044852252,
        "Argument of Periapsis(deg)": 0.023703336606764106,
        "Eccentricity": 0.0,
        "Inclination(deg)": 53.0,
        "Latitude(deg)": -41.37983903247226,
        "Longitude(deg)": -84.16424886475318,
        "Mean Anomaly(deg)": -55.557278158143355,
        "RAAN(deg)": 59.96472363473185,
        "Satellite Name": "Starlink Shell 1 280",
        "Satellite Number": 280,
        "Semi-Major Axis(m)": 6931778.249405717,
        "Time(s)": 680
    },
    {
        "Altitude(m)": 566933.7416022479,
        "Argument of Periapsis(deg)": 0.024051915086275345,
        "Eccentricity": 0.0,
        "Inclination(deg)": 53.0,
        "Latitude(deg)": -41.002076201235106,
        "Longitude(deg)": -83.54422931118977,
        "Mean Anomaly(deg)": -54.930446954586685,
        "RAAN(deg)": 59.96420486465437,
        "Satellite Name": "Starlink Shell 1 280",
        "Satellite Number": 280,
        "Semi-Major Axis(m)": 6931778.249405717,
        "Time(s)": 690
    },
    {
        "Altitude(m)": 566776.0378507307,
        "Argument of Periapsis(deg)": 0.024400493565786583,
        "Eccentricity": 0.0,
        "Inclination(deg)": 53.0,
        "Latitude(deg)": -40.62052956381513,
        "Longitude(deg)": -82.93173447196939,
        "Mean Anomaly(deg)": -54.30361575102989,
        "RAAN(deg)": 59.96368609457691,
        "Satellite Name": "Starlink Shell 1 280",
        "Satellite Number": 280,
        "Semi-Major Axis(m)": 6931778.249405717,
        "Time(s)": 700
    },
    {
        "Altitude(m)": 566616.8547528813,
        "Argument of Periapsis(deg)": 0.024749072045297815,
        "Eccentricity": 0.0,
        "Inclination(deg)": 53.0,
        "Latitude(deg)": -40.23529015002833,
        "Longitude(deg)": -82.32665121809843,
        "Mean Anomaly(deg)": -53.67678454747323,
        "RAAN(deg)": 59.96316732449943,
        "Satellite Name": "Starlink Shell 1 280",
        "Satellite Number": 280,
        "Semi-Major Axis(m)": 6931778.249405717,
        "Time(s)": 710
    },
    {
        "Altitude(m)": 566456.2543444122,
        "Argument of Periapsis(deg)": 0.025097650524809053,
        "Eccentricity": 0.0,
        "Inclination(deg)": 53.0,
        "Latitude(deg)": -39.84644716370145,
        "Longitude(deg)": -81.72886490217348,
        "Mean Anomaly(deg)": -53.049953343916464,
        "RAAN(deg)": 59.96264855442195,
        "Satellite Name": "Starlink Shell 1 280",
        "Satellite Number": 280,
        "Semi-Major Axis(m)": 6931778.249405717,
        "Time(s)": 720
    },
    {
        "Altitude(m)": 566294.2991470422,
        "Argument of Periapsis(deg)": 0.02544622900432029,
        "Eccentricity": 0.0,
        "Inclination(deg)": 53.0,
        "Latitude(deg)": -39.454087991564535,
        "Longitude(deg)": -81.13825910767325,
        "Mean Anomaly(deg)": -52.423122140359816,
        "RAAN(deg)": 59.96212978434449,
        "Satellite Name": "Starlink Shell 1 280",
        "Satellite Number": 280,
        "Semi-Major Axis(m)": 6931778.249405717,
        "Time(s)": 730
    },
    {
        "Altitude(m)": 566131.0521407998,
        "Argument of Periapsis(deg)": 0.02579480748383153,
        "Eccentricity": 0.0,
        "Inclination(deg)": 53.0,
        "Latitude(deg)": -39.0582982152605,
        "Longitude(deg)": -80.55471689496798,
        "Mean Anomaly(deg)": -51.796290936803096,
        "RAAN(deg)": 59.961611014267014,
        "Satellite Name": "Starlink Shell 1 280",
        "Satellite Number": 280,
        "Semi-Major Axis(m)": 6931778.249405717,
        "Time(s)": 740
    },
    {
        "Altitude(m)": 565966.576736073,
        "Argument of Periapsis(deg)": 0.026143385963342765,
        "Eccentricity": 0.0,
        "Inclination(deg)": 53.0,
        "Latitude(deg)": -38.659161626183526,
        "Longitude(deg)": -79.97812051882329,
        "Mean Anomaly(deg)": -51.16945973324633,
        "RAAN(deg)": 59.96109224418953,
        "Satellite Name": "Starlink Shell 1 280",
        "Satellite Number": 280,
        "Semi-Major Axis(m)": 6931778.249405717,
        "Time(s)": 750
    }
]